NORAD_CAT_ID,OBJECT_NAME,OBJECT_TYPE,EPOCH,MEAN_MOTION,ECCENTRICITY,INCLINATION,RA_OF_ASC_NODE,ARG_OF_PERICENTER,MEAN_ANOMALY,BSTAR,MEAN_MOTION_DOT,MEAN_MOTION_DDOT,TLE_LINE0,TLE_LINE1,TLE_LINE2,SEMIMAJOR_AXIS,PERIOD,APOGEE,PERIGEE,DECAYED
55296.0,STARLINK-5285,PAYLOAD,2024-03-13 08:26:45,14.98333563,0.0002991,69.9994,55.695,269.863,90.2187,7.5299e-06,-3e-08,0.0,0 STARLINK-5285,1 55296U 23010AD  24073.35191293 -.00000003  00000-0  75299-5 0  9993,2 55296  69.9994  55.6950 0002991 269.8630  90.2187 14.98333563 64169,6950.182,96.107,574.126,569.968,0.0
55296.0,STARLINK-5285,PAYLOAD,2024-03-13 16:27:26,14.98317124,0.0002916,69.9994,54.8522,278.7318,81.3511,0.00024197,2.794e-05,0.0,0 STARLINK-5285,1 55296U 23010AD  24073.68571841  .00002794  00000-0  24197-3 0  9997,2 55296  69.9994  54.8522 0002916 278.7318  81.3511 14.98317124 64217,6950.233,96.108,574.124,570.071,0.0
55296.0,STARLINK-5285,PAYLOAD,2024-03-13 22:51:58,14.98328028,0.0002982,69.9994,54.1794,269.3354,90.7463,2.8243e-05,2.44e-06,0.0,0 STARLINK-5285,1 55296U 23010AD  24073.95275507  .00000244  00000-0  28243-4 0  9992,2 55296  69.9994  54.1794 0002982 269.3354  90.7463 14.98328028 65441,6950.199,96.107,574.137,569.991,0.0
55296.0,STARLINK-5285,PAYLOAD,2024-03-14 05:16:30,14.98330379,0.0002997,69.9994,53.5064,269.8716,90.21,2.7539e-05,2.36e-06,0.0,0 STARLINK-5285,1 55296U 23010AD  24074.21979375  .00000236  00000-0  27539-4 0  9994,2 55296  69.9994  53.5064 0002997 269.8716  90.2100 14.98330379 64294,6950.192,96.107,574.14,569.974,0.0
55296.0,STARLINK-5285,PAYLOAD,2024-03-14 06:52:38,14.9833089,0.0002986,69.9994,53.338,269.8734,90.2083,3.3079e-05,3.02e-06,0.0,0 STARLINK-5285,1 55296U 23010AD  24074.28655322  .00000302  00000-0  33079-4 0  9994,2 55296  69.9994  53.3380 0002986 269.8734  90.2083 14.98330890 65492,6950.19,96.107,574.13,569.98,0.0
55296.0,STARLINK-5285,PAYLOAD,2024-03-14 21:17:51,14.98329184,0.000294,69.9996,51.823,270.0206,90.0616,-4.5278e-05,-6.33e-06,0.0,0 STARLINK-5285,1 55296U 23010AD  24074.88739649 -.00000633  00000-0 -45278-4 0  9998,2 55296  69.9996  51.8230 0002940 270.0206  90.0616 14.98329184 65583,6950.195,96.107,574.104,570.017,0.0
55296.0,STARLINK-5285,PAYLOAD,2024-03-15 05:18:31,14.98330839,0.0002953,69.9997,50.9813,270.0077,90.0744,-2.4466e-05,-3.85e-06,0.0,0 STARLINK-5285,1 55296U 23010AD  24075.22119428 -.00000385  00000-0 -24466-4 0  9994,2 55296  69.9997  50.9813 0002953 270.0077  90.0744 14.98330839 64446,6950.19,96.107,574.108,570.003,0.0
55296.0,STARLINK-5285,PAYLOAD,2024-03-15 22:55:59,14.98330759,0.000286,70.0002,49.1295,271.2466,88.8366,7.7032e-07,-8.4e-07,0.0,0 STARLINK-5285,1 55296U 23010AD  24075.95555290 -.00000084  00000-0  77032-6 0  9999,2 55296  70.0002  49.1295 0002860 271.2466  88.8366 14.98330759 65742,6950.191,96.107,574.043,570.068,0.0
55296.0,STARLINK-5285,PAYLOAD,2024-03-16 05:20:31,14.9833138,0.0002795,70.0004,48.4579,268.0773,92.0066,2.8838e-06,-5.9e-07,0.0,0 STARLINK-5285,1 55296U 23010AD  24076.22259217 -.00000059  00000-0  28838-5 0  9991,2 55296  70.0004  48.4579 0002795 268.0773  92.0066 14.98331380 64590,6950.189,96.107,573.996,570.111,0.0
55296.0,STARLINK-5285,PAYLOAD,2024-03-16 08:32:48,14.98331368,0.0002794,70.0004,48.1212,268.2298,91.8541,2.733e-06,-6e-07,0.0,0 STARLINK-5285,1 55296U 23010AD  24076.35611204 -.00000060  00000-0  27330-5 0  9991,2 55296  70.0004  48.1212 0002794 268.2298  91.8541 14.98331368 65800,6950.189,96.107,573.996,570.112,0.0
55296.0,STARLINK-5285,PAYLOAD,2024-03-16 22:58:00,14.98328126,0.0002773,70.0006,46.6064,262.543,97.5415,-3.682e-05,-5.32e-06,0.0,0 STARLINK-5285,1 55296U 23010AD  24076.95695484 -.00000532  00000-0 -36820-4 0  9997,2 55296  70.0006  46.6064 0002773 262.5430  97.5415 14.98328126 65892,6950.199,96.107,573.991,570.136,0.0
55296.0,STARLINK-5285,PAYLOAD,2024-03-17 06:58:41,14.98332022,0.0002747,70.0007,45.7637,257.4041,102.6811,-0.00011958,-1.52e-05,0.0,0 STARLINK-5285,1 55296U 23010AD  24077.29075444 -.00001520  00000-0 -11958-3 0  9995,2 55296  70.0007  45.7637 0002747 257.4041 102.6811 14.98332022 64753,6950.187,96.107,573.961,570.142,0.0
55296.0,STARLINK-5285,PAYLOAD,2024-03-17 21:23:53,14.98319811,0.0002954,70.001,44.2483,270.5901,89.4919,0.00015124,1.712e-05,0.0,0 STARLINK-5285,1 55296U 23010AD  24077.89159408  .00001712  00000-0  15124-3 0  9994,2 55296  70.0010  44.2483 0002954 270.5901  89.4919 14.98319811 66036,6950.224,96.108,574.142,570.036,0.0
55296.0,STARLINK-5285,PAYLOAD,2024-03-18 07:00:41,14.98331317,0.0002689,70.0011,43.2393,256.8558,103.2301,1.6151e-05,1e-06,0.0,0 STARLINK-5285,1 55296U 23010AD  24078.29215125  .00000100  00000-0  16151-4 0  9990,2 55296  70.0011  43.2393 0002689 256.8558 103.2301 14.98331317 64905,6950.189,96.107,573.923,570.185,0.0
55296.0,STARLINK-5285,PAYLOAD,2024-03-18 21:25:54,14.98328679,0.0002648,70.0012,41.7244,256.584,103.5024,2.963e-05,2.61e-06,0.0,0 STARLINK-5285,1 55296U 23010AD  24078.89299210  .00000261  00000-0  29630-4 0  9997,2 55296  70.0012  41.7244 0002648 256.5840 103.5024 14.98328679 66184,6950.197,96.107,573.902,570.222,0.0
55296.0,STARLINK-5285,PAYLOAD,2024-03-19 07:02:42,14.98331003,0.0002787,70.0012,40.7151,263.1505,96.9337,6.5914e-05,6.94e-06,0.0,0 STARLINK-5285,1 55296U 23010AD  24079.29355007  .00000694  00000-0  65914-4 0  9994,2 55296  70.0012  40.7151 0002787 263.1505  96.9337 14.98331003 66240,6950.19,96.107,573.992,570.118,0.0
55296.0,STARLINK-5285,PAYLOAD,2024-03-19 21:27:55,14.98335117,0.0002774,70.0011,39.1998,261.2318,98.8527,2.1551e-05,1.64e-06,0.0,0 STARLINK-5285,1 55296U 23010AD  24079.89438707  .00000164  00000-0  21551-4 0  9990,2 55296  70.0011  39.1998 0002774 261.2318  98.8527 14.98335117 65147,6950.177,96.107,573.97,570.114,0.0
55296.0,STARLINK-5285,PAYLOAD,2024-03-20 07:04:43,14.98339722,0.0002677,70.0012,38.1887,265.9611,94.1242,1.6715e-05,1.07e-06,0.0,0 STARLINK-5285,1 55296U 23010AD  24080.29494297  .00000107  00000-0  16715-4 0  9995,2 55296  70.0012  38.1887 0002677 265.9611  94.1242 14.98339722 66390,6950.163,96.106,573.888,570.167,0.0
55296.0,STARLINK-5285,PAYLOAD,2024-03-20 21:29:56,14.98326073,0.0001952,70.0028,36.6745,257.9704,102.1236,-9.1236e-06,-2.02e-06,0.0,0 STARLINK-5285,1 55296U 23010AD  24080.89579258 -.00000202  00000-0 -91236-5 0  9992,2 55296  70.0028  36.6745 0001952 257.9704 102.1236 14.98326073 65298,6950.205,96.107,573.427,570.713,0.0
55296.0,STARLINK-5285,PAYLOAD,2024-03-20 23:06:04,14.98325782,0.0002538,70.0028,36.5056,270.2437,89.8431,-4.9857e-05,-6.88e-06,0.0,0 STARLINK-5285,1 55296U 23010AD  24080.96255380 -.00000688  00000-0 -49857-4 0  9996,2 55296  70.0028  36.5056 0002538 270.2437  89.8431 14.98325782 66491,6950.206,96.107,573.835,570.307,0.0
55296.0,STARLINK-5285,PAYLOAD,2024-03-21 05:30:37,14.9831711,0.0002624,70.002,35.832,269.4082,90.6776,-4.4826e-05,-6.28e-06,0.0,0 STARLINK-5285,1 55296U 23010AD  24081.22960028 -.00000628  00000-0 -44826-4 0  9993,2 55296  70.0020  35.8320 0002624 269.4082  90.6776 14.98317110 65342,6950.233,96.108,573.921,570.274,0.0
55296.0,STARLINK-5285,PAYLOAD,2024-03-21 07:06:45,14.98324677,0.0002828,70.0013,35.6648,261.6717,98.4122,-5.483e-05,-7.47e-06,0.0,0 STARLINK-5285,1 55296U 23010AD  24081.29635488 -.00000747  00000-0 -54830-4 0  9997,2 55296  70.0013  35.6648 0002828 261.6717  98.4122 14.98324677 65358,6950.209,96.107,574.04,570.109,0.0
55296.0,STARLINK-5285,PAYLOAD,2024-03-21 21:31:56,14.98335109,0.0003235,70.0006,34.1517,264.7411,95.3379,-3.6171e-05,-5.25e-06,0.0,0 STARLINK-5285,1 55296U 23010AD  24081.89718714 -.00000525  00000-0 -36171-4 0  9999,2 55296  70.0006  34.1517 0003235 264.7411  95.3379 14.98335109 65449,6950.177,96.107,574.29,569.794,0.0
55296.0,STARLINK-5285,PAYLOAD,2024-03-22 05:32:35,14.98361054,0.0002511,70.0015,33.3091,258.704,101.3837,-0.00011532,-1.47e-05,0.0,0 STARLINK-5285,1 55296U 23010AD  24082.23097052 -.00001470  00000-0 -11532-3 0  9996,2 55296  70.0015  33.3091 0002511 258.7040 101.3837 14.98361054 65494,6950.097,96.105,573.707,570.217,0.0
55296.0,STARLINK-5285,PAYLOAD,2024-03-22 07:08:43,14.98348931,0.0002846,70.0014,33.1403,263.2494,96.8341,0.00014403,1.627e-05,0.0,0 STARLINK-5285,1 55296U 23010AD  24082.29773083  .00001627  00000-0  14403-3 0  9999,2 55296  70.0014  33.1403 0002846 263.2494  96.8341 14.98348931 66693,6950.134,96.106,573.977,570.021,0.0
55296.0,STARLINK-5285,PAYLOAD,2024-03-22 21:33:57,14.98322296,0.0002442,70.0017,31.6209,245.5585,114.532,0.00010216,1.126e-05,0.0,0 STARLINK-5285,1 55296U 23010AD  24082.89858770  .00001126  00000-0  10216-3 0  9994,2 55296  70.0017  31.6209 0002442 245.5585 114.5320 14.98322296 65598,6950.217,96.107,573.779,570.384,0.0
55296.0,STARLINK-5285,PAYLOAD,2024-03-23 21:35:56,14.98362624,0.0003109,70.0009,29.0992,263.388,96.6925,8.1783e-05,8.84e-06,0.0,0 STARLINK-5285,1 55296U 23010AD  24083.89995959  .00000884  00000-0  81783-4 0  9994,2 55296  70.0009  29.0992 0003109 263.3880  96.6925 14.98362624 65743,6950.092,96.105,574.118,569.796,0.0
55296.0,STARLINK-5285,PAYLOAD,2024-03-24 05:36:39,14.98328783,0.0002463,70.0026,28.26,258.3955,101.6927,-0.00019615,-2.432e-05,0.0,0 STARLINK-5285,1 55296U 23010AD  24084.23378671 -.00002432  00000-0 -19615-3 0  9996,2 55296  70.0026  28.2600 0002463 258.3955 101.6927 14.98328783 65790,6950.197,96.107,573.773,570.35,0.0
55296.0,STARLINK-5285,PAYLOAD,2024-03-24 07:12:47,14.98330489,0.0002697,70.0033,28.0914,257.6884,102.3973,-0.00025571,-3.143e-05,0.0,0 STARLINK-5285,1 55296U 23010AD  24084.30054689 -.00003143  00000-0 -25571-3 0  9992,2 55296  70.0033  28.0914 0002697 257.6884 102.3973 14.98330489 66994,6950.191,96.107,573.931,570.182,0.0
55296.0,STARLINK-5285,PAYLOAD,2024-03-24 21:38:01,14.98307514,0.0002367,70.004,26.5784,239.0738,121.0189,-7.2928e-05,-9.62e-06,0.0,0 STARLINK-5285,1 55296U 23010AD  24084.90140055 -.00000962  00000-0 -72928-4 0  9996,2 55296  70.0040  26.5784 0002367 239.0738 121.0189 14.98307514 65894,6950.262,96.108,573.773,570.482,0.0
